*******************************************************************************
 Revised: Feb 23, 2008   Galileo Spacecraft (Orbiter) / (Sun, Jupiter)     -77
                           http://solarsystem.nasa.gov/galileo/

 LAUNCHED      : Oct 18, 1989 (STS-34, Atlantis)  LAUNCH MASS:  2223 kg 
 END OF MISSION: Sep 21, 2003 

 Galileo plunged into Jupiter's crushing atmosphere on Sept. 21, 2003.  The 
 spacecraft was deliberately destroyed at the end of the mission to protect one 
 of its own discoveries - a possible ocean beneath the icy crust of the moon 
 Europa.  34 Jupiter orbits completed; 4,631,778,000 km traveled.

 Interplanetary phase main events:
  Venus flyby     : Feb 10, 1990           Earth-1 flyby: Dec 8, 1990
  951 Gaspra flyby: Oct 29, 1991           Earth-2 flyby: Dec 8, 1992
  243 Ida flyby   : Aug 28, 1993           SL-9 impacts : Jul 16-22, 1994 
  Probe separation: Jul 13, 1995           ARRIVAL      : Dec 7, 1995 (Jupiter)

 SPACECRAFT PHYSICAL CHARACTERISTICS:
  Overall height         = 5.3 m           Science instrument mass= 118 kg
  Fuel mass              = 925 kg (launch) Magnetometer boom      = 11 m
  High-gain antenna diam = 4.8 m           Dual RTG power output  = 570 watts
  RTG power decay rate   = -0.6 watts/mnth Total power at arrival = 493 watts
 
 TELECOMMUNICATIONS:
  Inoperative HGA        = 134 kb/sec      Actual (using low-gain)= 160 bits/s

 PROPULSION:
  One 400-newton main engine, twelve 10-newton thrusters.

 SPACECRAFT TRAJECTORY:
  Trajectory provided by Navigation Team (JPL). Data fit: 1989 to Aug 12, 2002,
  baseline predicts thereafter. Merged trajectories:

     Interplanetary Mission:           S970311A    (19-OCT-1989 to 02-JUL-1995)
     Primary Mission:                  S980326B    (30-JUN-1995 to 01-DEC-1997)
     Galileo Extended Mission (GEM)    S000131A    (01-DEC-1997 to 01-FEB-2000)
     Galileo Millennium Mission (GMM)  S030916A    (01-FEB-2000 to 30-SEP-2003)
*******************************************************************************
 
 
*******************************************************************************
Ephemeris / WWW_USER Wed May 13 00:46:10 2026 Pasadena, USA      / Horizons    
*******************************************************************************
Target body name: Galileo (spacecraft) (-77)      {source: galileo_merged}
Center body name: Earth (399)                     {source: galileo_merged}
Center-site name: GEOCENTRIC
*******************************************************************************
Start time      : A.D. 1992-Dec-08 18:00:00.0000 UT      
Stop  time      : A.D. 1992-Dec-08 23:00:00.0000 UT      
Step-size       : 1 minutes
*******************************************************************************
Target pole/equ : undefined
Target radii    : undefined                                                    
Center geodetic : 0.0, 0.0, -6378.137             {E-lon(deg),Lat(deg),Alt(km)}
Center cylindric: 0.0, 0.0, 0.0                   {E-lon(deg),Dxy(km),Dz(km)}
Center pole/equ : ITRF93                          {East-longitude positive}
Center radii    : 6378.137, 6378.137, 6356.752 km {Equator_a, b, pole_c}       
Target primary  : Earth
Vis. interferer : MOON (R_eq= 1737.400) km        {source: galileo_merged}
Rel. light bend : Sun                             {source: galileo_merged}
Rel. lght bnd GM: 1.3271E+11 km^3/s^2                                          
Atmos refraction: NO (AIRLESS)
RA format       : HMS
Time format     : CAL 
Calendar mode   : Mixed Julian/Gregorian
EOP file        : eop.260512.p260807                                           
EOP coverage    : DATA-BASED 1962-JAN-20 TO 2026-MAY-12. PREDICTS-> 2026-AUG-06
Units conversion: 1 au= 149597870.700 km, c= 299792.458 km/s, 1 day= 86400.0 s 
Table cut-offs 1: Elevation (-90.0deg=NO ),Airmass (>38.000=NO), Daylight (NO )
Table cut-offs 2: Solar elongation (  0.0,180.0=NO ),Local Hour Angle( 0.0=NO )
Table cut-offs 3: RA/DEC angular rate (     0.0=NO )                           
Table format    : Comma Separated Values (spreadsheet)
**************************************************************************************************
 Date__(UT)__HR:MN, , , R.A.__(a-app), DEC_(a-app),  1-way_down_LT,             delta,     deldot,
**************************************************************************************************
$$SOE
 1992-Dec-08 18:56, , ,   11 50 32.98, -07 44 30.6,     0.00734100,  1.3204663564E+05,  9.1833613,
 1992-Dec-08 18:57, , ,   11 50 29.60, -07 43 47.2,     0.00737163,  1.3259753282E+05,  9.1822241,
 1992-Dec-08 18:58, , ,   11 50 26.24, -07 43 04.2,     0.00740225,  1.3314836202E+05,  9.1810954,
 1992-Dec-08 18:59, , ,   11 50 22.92, -07 42 21.5,     0.00743287,  1.3369912376E+05,  9.1799751,
 1992-Dec-08 19:00, , ,   11 50 19.62, -07 41 39.2,     0.00746349,  1.3424981854E+05,  9.1788630,
 1992-Dec-08 19:01, , ,   11 50 16.35, -07 40 57.2,     0.00749410,  1.3480044685E+05,  9.1777592,
 1992-Dec-08 19:02, , ,   11 50 13.10, -07 40 15.5,     0.00752471,  1.3535100917E+05,  9.1766634,
 1992-Dec-08 19:03, , ,   11 50 09.88, -07 39 34.2,     0.00755531,  1.3590150600E+05,  9.1755757,
 1992-Dec-08 19:04, , ,   11 50 06.69, -07 38 53.3,     0.00758591,  1.3645193780E+05,  9.1744959,
 1992-Dec-08 19:05, , ,   11 50 03.52, -07 38 12.6,     0.00761651,  1.3700230506E+05,  9.1734239,
 1992-Dec-08 19:06, , ,   11 50 00.38, -07 37 32.3,     0.00764710,  1.3755260823E+05,  9.1723596,
 1992-Dec-08 19:07, , ,   11 49 57.27, -07 36 52.3,     0.00767769,  1.3810284779E+05,  9.1713031,
 1992-Dec-08 19:08, , ,   11 49 54.18, -07 36 12.6,     0.00770828,  1.3865302419E+05,  9.1702541,
 1992-Dec-08 19:09, , ,   11 49 51.11, -07 35 33.2,     0.00773886,  1.3920313787E+05,  9.1692126,
 1992-Dec-08 19:10, , ,   11 49 48.07, -07 34 54.2,     0.00776944,  1.3975318930E+05,  9.1681785,
 1992-Dec-08 19:11, , ,   11 49 45.05, -07 34 15.4,     0.00780002,  1.4030317891E+05,  9.1671518,
 1992-Dec-08 19:12, , ,   11 49 42.06, -07 33 36.9,     0.00783059,  1.4085310714E+05,  9.1661323,
 1992-Dec-08 19:13, , ,   11 49 39.09, -07 32 58.8,     0.00786116,  1.4140297442E+05,  9.1651201,
 1992-Dec-08 19:14, , ,   11 49 36.14, -07 32 20.9,     0.00789173,  1.4195278118E+05,  9.1641149,
 1992-Dec-08 19:15, , ,   11 49 33.21, -07 31 43.3,     0.00792229,  1.4250252786E+05,  9.1631168,
 1992-Dec-08 19:16, , ,   11 49 30.31, -07 31 06.1,     0.00795285,  1.4305221485E+05,  9.1621256,
 1992-Dec-08 19:17, , ,   11 49 27.43, -07 30 29.0,     0.00798340,  1.4360184260E+05,  9.1611413,
 1992-Dec-08 19:18, , ,   11 49 24.57, -07 29 52.3,     0.00801396,  1.4415141149E+05,  9.1601639,
 1992-Dec-08 19:19, , ,   11 49 21.74, -07 29 15.9,     0.00804451,  1.4470092195E+05,  9.1591932,
 1992-Dec-08 19:20, , ,   11 49 18.92, -07 28 39.7,     0.00807505,  1.4525037437E+05,  9.1582292,
 1992-Dec-08 19:21, , ,   11 49 16.13, -07 28 03.8,     0.00810559,  1.4579976916E+05,  9.1572718,
 1992-Dec-08 19:22, , ,   11 49 13.36, -07 27 28.2,     0.00813613,  1.4634910670E+05,  9.1563209,
 1992-Dec-08 19:23, , ,   11 49 10.61, -07 26 52.8,     0.00816667,  1.4689838739E+05,  9.1553765,
 1992-Dec-08 19:24, , ,   11 49 07.88, -07 26 17.7,     0.00819720,  1.4744761161E+05,  9.1544385,
 1992-Dec-08 19:25, , ,   11 49 05.17, -07 25 42.9,     0.00822774,  1.4799677975E+05,  9.1535069,
 1992-Dec-08 19:26, , ,   11 49 02.48, -07 25 08.3,     0.00825826,  1.4854589219E+05,  9.1525815,
 1992-Dec-08 19:27, , ,   11 48 59.81, -07 24 33.9,     0.00828879,  1.4909494930E+05,  9.1516624,
 1992-Dec-08 19:28, , ,   11 48 57.16, -07 23 59.9,     0.00831931,  1.4964395144E+05,  9.1507494,
 1992-Dec-08 19:29, , ,   11 48 54.53, -07 23 26.0,     0.00834983,  1.5019289900E+05,  9.1498425,
 1992-Dec-08 19:30, , ,   11 48 51.92, -07 22 52.4,     0.00838034,  1.5074179233E+05,  9.1489417,
 1992-Dec-08 19:31, , ,   11 48 49.32, -07 22 19.1,     0.00841085,  1.5129063179E+05,  9.1480468,
 1992-Dec-08 19:32, , ,   11 48 46.75, -07 21 46.0,     0.00844136,  1.5183941774E+05,  9.1471578,
 1992-Dec-08 19:33, , ,   11 48 44.20, -07 21 13.1,     0.00847187,  1.5238815054E+05,  9.1462747,
 1992-Dec-08 19:34, , ,   11 48 41.66, -07 20 40.5,     0.00850237,  1.5293683052E+05,  9.1453973,
 1992-Dec-08 19:35, , ,   11 48 39.14, -07 20 08.1,     0.00853287,  1.5348545804E+05,  9.1445258,
 1992-Dec-08 19:36, , ,   11 48 36.64, -07 19 35.9,     0.00856337,  1.5403403345E+05,  9.1436598,
 1992-Dec-08 19:37, , ,   11 48 34.16, -07 19 04.0,     0.00859387,  1.5458255707E+05,  9.1427996,
 1992-Dec-08 19:38, , ,   11 48 31.69, -07 18 32.3,     0.00862436,  1.5513102925E+05,  9.1419449,
 1992-Dec-08 19:39, , ,   11 48 29.25, -07 18 00.8,     0.00865485,  1.5567945031E+05,  9.1410957,
 1992-Dec-08 19:40, , ,   11 48 26.82, -07 17 29.5,     0.00868533,  1.5622782060E+05,  9.1402520,
 1992-Dec-08 19:41, , ,   11 48 24.40, -07 16 58.4,     0.00871582,  1.5677614043E+05,  9.1394137,
 1992-Dec-08 19:42, , ,   11 48 22.01, -07 16 27.6,     0.00874630,  1.5732441012E+05,  9.1385807,
 1992-Dec-08 19:43, , ,   11 48 19.63, -07 15 57.0,     0.00877677,  1.5787263000E+05,  9.1377531,
 1992-Dec-08 19:44, , ,   11 48 17.27, -07 15 26.6,     0.00880725,  1.5842080039E+05,  9.1369307,
 1992-Dec-08 19:45, , ,   11 48 14.92, -07 14 56.3,     0.00883772,  1.5896892159E+05,  9.1361135,
 1992-Dec-08 19:46, , ,   11 48 12.59, -07 14 26.3,     0.00886819,  1.5951699393E+05,  9.1353015,
 1992-Dec-08 19:47, , ,   11 48 10.28, -07 13 56.6,     0.00889866,  1.6006501770E+05,  9.1344946,
 1992-Dec-08 19:48, , ,   11 48 07.98, -07 13 27.0,     0.00892912,  1.6061299321E+05,  9.1336928,
 1992-Dec-08 19:49, , ,   11 48 05.70, -07 12 57.6,     0.00895958,  1.6116092077E+05,  9.1328959,
 1992-Dec-08 19:50, , ,   11 48 03.43, -07 12 28.4,     0.00899004,  1.6170880067E+05,  9.1321041,
 1992-Dec-08 19:51, , ,   11 48 01.18, -07 11 59.4,     0.00902050,  1.6225663322E+05,  9.1313171,
